0 THORAD AGENA D DEB
1 05151U 70025JU  13282.47914027  .00000359  00000-0  52863-3 0  5019
2 05151 100.1444 289.3557 0001189 227.8917 290.2412 13.61912668652581
0 THORAD AGENA D DEB
1 05151U 70025JU  13283.50644547  .00000355  00000-0  52457-3 0  5027
2 05151 100.1442 290.4228 0001241 224.3393 287.9916 13.61913500652720
0 THORAD AGENA D DEB
1 05151U 70025JU  13286.51874870  .00000346  00000-0  51252-3 0  5049
2 05151 100.1437 293.5519 0001345 215.5409 298.2724 13.61915838653130
0 THORAD AGENA D DEB
1 05151U 70025JU  13287.74723346  .00000409  00000-0  59375-3 0  5051
2 05151 100.1436 294.8280 0001399 212.7809 201.1046 13.61917209653303
0 THORAD AGENA D DEB
1 05151U 70025JU  13289.53195410  .00000367  00000-0  53942-3 0  5063
2 05151 100.1435 296.6815 0001469 208.2315 311.5159 13.61919406653544
0 THORAD AGENA D DEB
1 05151U 70025JU  13290.68787697  .00000411  00000-0  59615-3 0  5079
2 05151 100.1437 297.8820 0001500 204.9877 219.2635 13.61920298653709
0 THORAD AGENA D DEB
1 05151U 70025JU  13291.71345014  .00000418  00000-0  60564-3 0  5080
2 05151 100.1438 298.9470 0001533 202.8853 207.1054 13.61921117653847
0 THORAD AGENA D DEB
1 05151U 70025JU  13292.83059418  .00000442  00000-0  63653-3 0  5094
2 05151 100.1439 300.1073 0001567 200.2946 284.1753 13.61922069653999
0 THORAD AGENA D DEB
1 05151U 70025JU  13293.99162708  .00000431  00000-0  62275-3 0  5108
2 05151 100.1440 301.3131 0001595 197.7440 216.2821 13.61923321654152
0 THORAD AGENA D DEB
1 05151U 70025JU  13295.84230447  .00000477  00000-0  68294-3 0  5118
2 05151 100.1441 303.2354 0001645 192.6066 290.5396 13.61925025654408
